[{"COMMENT":"GENERATED VIA SPACETRACK.ORG API","ORIGINATOR":"18 SPCS","NORAD_CAT_ID":"43477","OBJECT_NAME":"GRACE-FO 2","OBJECT_TYPE":"PAYLOAD","CLASSIFICATION_TYPE":"U","INTLDES":"18047B","EPOCH":"2023-11-20 22:26:48","EPOCH_MICROSECONDS":"928128","MEAN_MOTION":"15.27364777","ECCENTRICITY":"0.0015212","INCLINATION":"88.9815","RA_OF_ASC_NODE":"327.8464","ARG_OF_PERICENTER":"143.8667","MEAN_ANOMALY":"216.3614","EPHEMERIS_TYPE":"0","ELEMENT_SET_NO":"999","REV_AT_EPOCH":"30591","BSTAR":"0.00010095","MEAN_MOTION_DOT":"0.00002742","MEAN_MOTION_DDOT":"0","FILE":"4099015","TLE_LINE0":"0 GRACE-FO 2","TLE_LINE1":"1 43477U 18047B   23324.93528852  .00002742  00000-0  10095-3 0  9994","TLE_LINE2":"2 43477  88.9815 327.8464 0015212 143.8667 216.3614 15.27364777305916","OBJECT_ID":"2018-047B","OBJECT_NUMBER":"43477","SEMIMAJOR_AXIS":"6861.831","PERIOD":"94.280","APOGEE":"494.134","PERIGEE":"473.257","DECAYED":"0"},{"COMMENT":"GENERATED VIA SPACETRACK.ORG API","ORIGINATOR":"18 SPCS","NORAD_CAT_ID":"43477","OBJECT_NAME":"GRACE-FO 2","OBJECT_TYPE":"PAYLOAD","CLASSIFICATION_TYPE":"U","INTLDES":"18047B","EPOCH":"2023-11-21 11:01:35","EPOCH_MICROSECONDS":"80320","MEAN_MOTION":"15.27368525","ECCENTRICITY":"0.0015314","INCLINATION":"88.9814","RA_OF_ASC_NODE":"327.7745","ARG_OF_PERICENTER":"142.0905","MEAN_ANOMALY":"218.1426","EPHEMERIS_TYPE":"0","ELEMENT_SET_NO":"999","REV_AT_EPOCH":"30599","BSTAR":"0.00011234","MEAN_MOTION_DOT":"0.00003048","MEAN_MOTION_DDOT":"0","FILE":"4099596","TLE_LINE0":"0 GRACE-FO 2","TLE_LINE1":"1 43477U 18047B   23325.45943380  .00003048  00000-0  11234-3 0  9995","TLE_LINE2":"2 43477  88.9814 327.7745 0015314 142.0905 218.1426 15.27368525305999","OBJECT_ID":"2018-047B","OBJECT_NUMBER":"43477","SEMIMAJOR_AXIS":"6861.819","PERIOD":"94.280","APOGEE":"494.193","PERIGEE":"473.176","DECAYED":"0"},{"COMMENT":"GENERATED VIA SPACETRACK.ORG API","ORIGINATOR":"18 SPCS","NORAD_CAT_ID":"43477","OBJECT_NAME":"GRACE-FO 2","OBJECT_TYPE":"PAYLOAD","CLASSIFICATION_TYPE":"U","INTLDES":"18047B","EPOCH":"2023-11-21 12:35:55","EPOCH_MICROSECONDS":"807872","MEAN_MOTION":"15.27370359","ECCENTRICITY":"0.001532","INCLINATION":"88.9814","RA_OF_ASC_NODE":"327.7656","ARG_OF_PERICENTER":"141.8609","MEAN_ANOMALY":"218.3728","EPHEMERIS_TYPE":"0","ELEMENT_SET_NO":"999","REV_AT_EPOCH":"30600","BSTAR":"0.00012806","MEAN_MOTION_DOT":"0.0000347","MEAN_MOTION_DDOT":"0","FILE":"4100115","TLE_LINE0":"0 GRACE-FO 2","TLE_LINE1":"1 43477U 18047B   23325.52495148  .00003470  00000-0  12806-3 0  9992","TLE_LINE2":"2 43477  88.9814 327.7656 0015320 141.8609 218.3728 15.27370359306003","OBJECT_ID":"2018-047B","OBJECT_NUMBER":"43477","SEMIMAJOR_AXIS":"6861.814","PERIOD":"94.280","APOGEE":"494.191","PERIGEE":"473.167","DECAYED":"0"},{"COMMENT":"GENERATED VIA SPACETRACK.ORG API","ORIGINATOR":"18 SPCS","NORAD_CAT_ID":"43477","OBJECT_NAME":"GRACE-FO 2","OBJECT_TYPE":"PAYLOAD","CLASSIFICATION_TYPE":"U","INTLDES":"18047B","EPOCH":"2023-11-21 20:27:39","EPOCH_MICROSECONDS":"567456","MEAN_MOTION":"15.27373211","ECCENTRICITY":"0.0015402","INCLINATION":"88.9815","RA_OF_ASC_NODE":"327.7207","ARG_OF_PERICENTER":"140.7646","MEAN_ANOMALY":"219.4723","EPHEMERIS_TYPE":"0","ELEMENT_SET_NO":"999","REV_AT_EPOCH":"30605","BSTAR":"0.00014581","MEAN_MOTION_DOT":"0.00003947","MEAN_MOTION_DDOT":"0","FILE":"4100393","TLE_LINE0":"0 GRACE-FO 2","TLE_LINE1":"1 43477U 18047B   23325.85254129  .00003947  00000-0  14581-3 0  9991","TLE_LINE2":"2 43477  88.9815 327.7207 0015402 140.7646 219.4723 15.27373211306058","OBJECT_ID":"2018-047B","OBJECT_NUMBER":"43477","SEMIMAJOR_AXIS":"6861.805","PERIOD":"94.280","APOGEE":"494.239","PERIGEE":"473.102","DECAYED":"0"},{"COMMENT":"GENERATED VIA SPACETRACK.ORG API","ORIGINATOR":"18 SPCS","NORAD_CAT_ID":"43477","OBJECT_NAME":"GRACE-FO 2","OBJECT_TYPE":"PAYLOAD","CLASSIFICATION_TYPE":"U","INTLDES":"18047B","EPOCH":"2023-11-22 13:45:27","EPOCH_MICROSECONDS":"613728","MEAN_MOTION":"15.27380494","ECCENTRICITY":"0.0015515","INCLINATION":"88.9814","RA_OF_ASC_NODE":"327.622","ARG_OF_PERICENTER":"138.3106","MEAN_ANOMALY":"221.9329","EPHEMERIS_TYPE":"0","ELEMENT_SET_NO":"999","REV_AT_EPOCH":"30616","BSTAR":"0.00017617","MEAN_MOTION_DOT":"0.00004764","MEAN_MOTION_DDOT":"0","FILE":"4101817","TLE_LINE0":"0 GRACE-FO 2","TLE_LINE1":"1 43477U 18047B   23326.57323627  .00004764  00000-0  17617-3 0  9992","TLE_LINE2":"2 43477  88.9814 327.6220 0015515 138.3106 221.9329 15.27380494306163","OBJECT_ID":"2018-047B","OBJECT_NUMBER":"43477","SEMIMAJOR_AXIS":"6861.784","PERIOD":"94.279","APOGEE":"494.295","PERIGEE":"473.002","DECAYED":"0"},{"COMMENT":"GENERATED VIA SPACETRACK.ORG API","ORIGINATOR":"18 SPCS","NORAD_CAT_ID":"43477","OBJECT_NAME":"GRACE-FO 2","OBJECT_TYPE":"PAYLOAD","CLASSIFICATION_TYPE":"U","INTLDES":"18047B","EPOCH":"2023-11-22 18:28:29","EPOCH_MICROSECONDS":"763552","MEAN_MOTION":"15.27382133","ECCENTRICITY":"0.0015542","INCLINATION":"88.9813","RA_OF_ASC_NODE":"327.5951","ARG_OF_PERICENTER":"137.6419","MEAN_ANOMALY":"222.6033","EPHEMERIS_TYPE":"0","ELEMENT_SET_NO":"999","REV_AT_EPOCH":"30619","BSTAR":"0.00017774","MEAN_MOTION_DOT":"0.00004807","MEAN_MOTION_DDOT":"0","FILE":"4101870","TLE_LINE0":"0 GRACE-FO 2","TLE_LINE1":"1 43477U 18047B   23326.76978893  .00004807  00000-0  17774-3 0  9996","TLE_LINE2":"2 43477  88.9813 327.5951 0015542 137.6419 222.6033 15.27382133306196","OBJECT_ID":"2018-047B","OBJECT_NUMBER":"43477","SEMIMAJOR_AXIS":"6861.779","PERIOD":"94.279","APOGEE":"494.308","PERIGEE":"472.979","DECAYED":"0"},{"COMMENT":"GENERATED VIA SPACETRACK.ORG API","ORIGINATOR":"18 SPCS","NORAD_CAT_ID":"43477","OBJECT_NAME":"GRACE-FO 2","OBJECT_TYPE":"PAYLOAD","CLASSIFICATION_TYPE":"U","INTLDES":"18047B","EPOCH":"2023-11-22 20:02:50","EPOCH_MICROSECONDS":"496288","MEAN_MOTION":"15.27382777","ECCENTRICITY":"0.0015548","INCLINATION":"88.9813","RA_OF_ASC_NODE":"327.5861","ARG_OF_PERICENTER":"137.4209","MEAN_ANOMALY":"222.8249","EPHEMERIS_TYPE":"0","ELEMENT_SET_NO":"999","REV_AT_EPOCH":"30620","BSTAR":"0.00018269","MEAN_MOTION_DOT":"0.0000494","MEAN_MOTION_DDOT":"0","FILE":"4102346","TLE_LINE0":"0 GRACE-FO 2","TLE_LINE1":"1 43477U 18047B   23326.83530667  .00004940  00000-0  18269-3 0  9995","TLE_LINE2":"2 43477  88.9813 327.5861 0015548 137.4209 222.8249 15.27382777306204","OBJECT_ID":"2018-047B","OBJECT_NUMBER":"43477","SEMIMAJOR_AXIS":"6861.777","PERIOD":"94.279","APOGEE":"494.310","PERIGEE":"472.973","DECAYED":"0"},{"COMMENT":"GENERATED VIA SPACETRACK.ORG API","ORIGINATOR":"18 SPCS","NORAD_CAT_ID":"43477","OBJECT_NAME":"GRACE-FO 2","OBJECT_TYPE":"PAYLOAD","CLASSIFICATION_TYPE":"U","INTLDES":"18047B","EPOCH":"2023-11-23 13:20:38","EPOCH_MICROSECONDS":"150304","MEAN_MOTION":"15.27389422","ECCENTRICITY":"0.001566","INCLINATION":"88.9811","RA_OF_ASC_NODE":"327.4874","ARG_OF_PERICENTER":"135.0264","MEAN_ANOMALY":"225.2257","EPHEMERIS_TYPE":"0","ELEMENT_SET_NO":"999","REV_AT_EPOCH":"30631","BSTAR":"0.00018811","MEAN_MOTION_DOT":"0.00005087","MEAN_MOTION_DDOT":"0","FILE":"4103560","TLE_LINE0":"0 GRACE-FO 2","TLE_LINE1":"1 43477U 18047B   23327.55599711  .00005087  00000-0  18811-3 0  9996","TLE_LINE2":"2 43477  88.9811 327.4874 0015660 135.0264 225.2257 15.27389422306317","OBJECT_ID":"2018-047B","OBJECT_NUMBER":"43477","SEMIMAJOR_AXIS":"6861.757","PERIOD":"94.279","APOGEE":"494.367","PERIGEE":"472.876","DECAYED":"0"},{"COMMENT":"GENERATED VIA SPACETRACK.ORG API","ORIGINATOR":"18 SPCS","NORAD_CAT_ID":"43477","OBJECT_NAME":"GRACE-FO 2","OBJECT_TYPE":"PAYLOAD","CLASSIFICATION_TYPE":"U","INTLDES":"18047B","EPOCH":"2023-11-23 19:38:00","EPOCH_MICROSECONDS":"860064","MEAN_MOTION":"15.27391887","ECCENTRICITY":"0.0015692","INCLINATION":"88.9811","RA_OF_ASC_NODE":"327.4515","ARG_OF_PERICENTER":"134.1085","MEAN_ANOMALY":"226.1458","EPHEMERIS_TYPE":"0","ELEMENT_SET_NO":"999","REV_AT_EPOCH":"30635","BSTAR":"0.00018589","MEAN_MOTION_DOT":"0.00005027","MEAN_MOTION_DDOT":"0","FILE":"4103681","TLE_LINE0":"0 GRACE-FO 2","TLE_LINE1":"1 43477U 18047B   23327.81806551  .00005027  00000-0  18589-3 0  9994","TLE_LINE2":"2 43477  88.9811 327.4515 0015692 134.1085 226.1458 15.27391887306350","OBJECT_ID":"2018-047B","OBJECT_NUMBER":"43477","SEMIMAJOR_AXIS":"6861.749","PERIOD":"94.278","APOGEE":"494.382","PERIGEE":"472.847","DECAYED":"0"},{"COMMENT":"GENERATED VIA SPACETRACK.ORG API","ORIGINATOR":"18 SPCS","NORAD_CAT_ID":"43477","OBJECT_NAME":"GRACE-FO 2","OBJECT_TYPE":"PAYLOAD","CLASSIFICATION_TYPE":"U","INTLDES":"18047B","EPOCH":"2023-11-23 22:46:42","EPOCH_MICROSECONDS":"190752","MEAN_MOTION":"15.27392791","ECCENTRICITY":"0.0015694","INCLINATION":"88.981","RA_OF_ASC_NODE":"327.4335","ARG_OF_PERICENTER":"133.6415","MEAN_ANOMALY":"226.6139","EPHEMERIS_TYPE":"0","ELEMENT_SET_NO":"999","REV_AT_EPOCH":"30637","BSTAR":"0.00017503","MEAN_MOTION_DOT":"0.00004736","MEAN_MOTION_DDOT":"0","FILE":"4104120","TLE_LINE0":"0 GRACE-FO 2","TLE_LINE1":"1 43477U 18047B   23327.94909943  .00004736  00000-0  17503-3 0  9998","TLE_LINE2":"2 43477  88.9810 327.4335 0015694 133.6415 226.6139 15.27392791306370","OBJECT_ID":"2018-047B","OBJECT_NUMBER":"43477","SEMIMAJOR_AXIS":"6861.747","PERIOD":"94.278","APOGEE":"494.381","PERIGEE":"472.843","DECAYED":"0"}]